{
    "CCSDS_OMM_VERS": "3.0",
    "COMMENT": "GENERATED VIA SPACE-TRACK.ORG API",
    "CREATION_DATE": "2025-11-19T22:36:20",
    "ORIGINATOR": "18 SPCS",
    "OBJECT_NAME": "BEIDOU 3 IGSO-1",
    "OBJECT_ID": "2019-023A",
    "CENTER_NAME": "EARTH",
    "REF_FRAME": "TEME",
    "TIME_SYSTEM": "UTC",
    "MEAN_ELEMENT_THEORY": "SGP4",
    "EPOCH": "2025-11-19T14:15:02.708640",
    "MEAN_MOTION": "1.00252177",
    "ECCENTRICITY": "0.00269660",
    "INCLINATION": "58.4003",
    "RA_OF_ASC_NODE": "39.8168",
    "ARG_OF_PERICENTER": "221.2202",
    "MEAN_ANOMALY": "126.9723",
    "EPHEMERIS_TYPE": "0",
    "CLASSIFICATION_TYPE": "U",
    "NORAD_CAT_ID": "44204",
    "ELEMENT_SET_NO": "999",
    "REV_AT_EPOCH": "510",
    "BSTAR": "0.00000000000000",
    "MEAN_MOTION_DOT": "-0.00000226",
    "MEAN_MOTION_DDOT": "0.0000000000000",
    "SEMIMAJOR_AXIS": "42170.230",
    "PERIOD": "1436.378",
    "APOAPSIS": "35905.811",
    "PERIAPSIS": "35678.378",
    "OBJECT_TYPE": "PAYLOAD",
    "RCS_SIZE": "LARGE",
    "COUNTRY_CODE": "PRC",
    "LAUNCH_DATE": "2019-04-20",
    "SITE": "XSC",
    "DECAY_DATE": null,
    "FILE": "4889206",
    "GP_ID": "303027167",
    "TLE_LINE0": "0 BEIDOU 3 IGSO-1",
    "TLE_LINE1": "1 44204U 19023A   25323.59378135 -.00000226  00000-0  00000+0 0  9995",
    "TLE_LINE2": "2 44204  58.4003  39.8168 0026966 221.2202 126.9723  1.00252177  5102"
}